P/2010 D2 (WISE),e,57.0838,319.8929,120.1272,6.715146,0.0566397,0.45074789,215.8367,07/26.0/2020,2000,g 16.0,4.0
# From MPC 75009
P/2010 E2 (Jarnac),e,15.4125,177.8254,8.3747,8.637145,0.0388283,0.72049412,146.1828,07/26.0/2020,2000,g 14.0,4.0
# From MPC 72851
P/2010 H2 (Vales),e,14.2725,64.2127,128.2658,3.835247,0.1312243,0.19554187,137.8481,07/26.0/2020,2000,g  6.0,4.0
# From MPC 70361
P/2010 H3 (SOHO),e,23.1392,77.2018,26.0420,3.062072,0.1839421,0.98549724,0.0000,02/07.9424/2021,2000,g 20.0,2.0
# From MPC 73463
P/2010 H4 (Scotti),e,2.3194,44.7518,179.5724,6.588070,0.0582863,0.26787050,214.9161,07/26.0/2020,2000,g 10.5,4.0
# From MPC 74637
P/2010 H5 (Scotti),e,14.0700,24.8106,175.3339,7.156435,0.0514824,0.15400278,193.4288,07/26.0/2020,2000,g 13.0,2.0
# From MPC 98558
P/2010 J3 (McMillan),e,13.2910,106.4045,157.5741,8.968332,0.0366975,0.72747806,132.7642,07/26.0/2020,2000,g 11.0,4.0
# From MPC 84315
P/2010 JC81 (WISE),e,38.6971,30.8388,12.4521,8.112289,0.0426569,0.77648114,144.4496,07/26.0/2020,2000,g  9.0,4.0
# From MPC 74248
P/2010 T2 (PANSTARRS),e,7.9324,59.1661,353.9155,5.503800,0.0763326,0.32164235,257.6250,07/26.0/2020,2000,g 11.5,4.0
# From MPC 98558
P/2010 TO20 (LINEAR-Grauer),e,2.4794,43.2999,266.7578,5.828018,0.0700524,0.05427496,300.6857,07/26.0/2020,2000,g  9.0,4.0
# From MPC 82316
P/2010 U1 (Boattini),e,8.2139,280.7209,85.8695,6.513481,0.0592904,0.24772405,227.6129,07/26.0/2020,2000,g  9.5,4.0
# From MPC119994
C/2010 U3 (Boattini),e,55.5172,43.0416,88.0763,2566,0.0000076,0.99670910,0.0000,02/26.0917/2019,2000,g  1.0,4.0
# From MPC 79021
P/2010 UH55 (Spacewatch),e,8.0501,233.0282,225.1853,6.649760,0.0574771,0.56364847,194.7263,07/26.0/2020,2000,g 11.0,4.0
# From MPC 75009
P/2010 WK (LINEAR),e,11.4001,11.3124,41.0027,5.759388,0.0713082,0.68965910,256.0403,07/26.0/2020,2000,g 14.5,2.0
# From MPC 82317
P/2011 A2 (Scotti),e,4.4753,54.6745,94.5433,3.104916,0.1801480,0.49937966,271.0565,07/26.0/2020,2000,g 16.5,4.0
# From MPC 84021
P/2011 C2 (Gibbs),e,10.8856,12.1221,161.0711,7.414235,0.0488208,0.26910598,152.5824,07/26.0/2020,2000,g  9.0,4.0
# From MPC 79866
P/2011 FR143 (Lemmon),e,15.9914,190.9493,350.1548,6.855427,0.0549101,0.45125161,188.3924,07/26.0/2020,2000,g 14.0,2.0
# From MPC 82317
P/2011 JB15 (Spacewatch-Boattini),e,19.1461,153.6033,110.9573,7.352392,0.0494380,0.31832555,153.5380,07/26.0/2020,2000,g  9.0,4.0
# From MPEC 2020-AA5
C/2011 KP36 (Spacewatch),e,18.9833,173.3104,180.6263,38.80248,0.0040777,0.87426382,6.2005,07/26.0/2020,2000,g  4.5,4.0
# From MPC 87913
P/2011 N1 (ASH),e,35.7076,77.6073,330.3442,6.250897,0.0630653,0.54345635,188.5834,07/26.0/2020,2000,g 11.5,4.0
# From MPC 75714
P/2011 NO1 (Elenin),e,15.2491,295.7881,263.8427,5.522479,0.0759457,0.77502919,263.6376,07/26.0/2020,2000,g 15.0,4.0
# From MPC 82318
P/2011 P1 (McNaught),e,5.6567,4.2423,348.8738,7.470278,0.0482724,0.32669315,176.7638,07/26.0/2020,2000,g  9.0,4.0
# From MPC 77806
P/2011 Q3 (McNaught),e,6.0562,32.0243,310.9660,4.970618,0.0889382,0.53245188,292.8911,07/26.0/2020,2000,g 13.5,4.0
# From MPEC 2020-N31
P/2011 R3 (Novichonok-Gerke),e,19.2519,189.6857,225.0802,4.779741,0.0943186,0.27166289,285.0489,07/26.0/2020,2000,g 11.0,4.0
# From MPC 98558
P/2011 S1 (Gibbs),e,2.6835,218.9139,192.5493,8.589649,0.0391508,0.19999577,85.1636,07/26.0/2020,2000,g  8.0,4.0
# From MPEC 2020-N31
P/2011 U2 (Bressi),e,9.9308,263.3968,154.1417,4.901948,0.0908136,0.13396316,259.6751,07/26.0/2020,2000,g 10.0,4.0
# From MPC 79022
P/2011 UA134 (Spacewatch-PANSTARRS),e,10.4449,40.4347,32.4697,5.602683,0.0743207,0.62929520,235.9492,07/26.0/2020,2000,g 17.5,4.0
# From MPC 77406
P/2011 V1 (Boattini),e,7.3777,46.8563,269.2272,3.854278,0.1302535,0.55063358,86.3459,07/26.0/2020,2000,g 15.5,4.0
# From MPC 82718
P/2011 W1 (PANSTARRS),e,3.7186,161.7900,282.7260,4.659977,0.0979780,0.28694835,304.9622,07/26.0/2020,2000,g 11.5,4.0
# From MPC 79342
P/2011 Y2 (Boattini),e,6.3713,309.3695,131.9435,6.239692,0.0632353,0.70918430,193.6880,07/26.0/2020,2000,g 15.0,4.0
# From MPC 94669
P/2012 B1 (PANSTARRS),e,7.6167,36.1960,162.5982,6.526831,0.0591086,0.41001953,151.4239,07/26.0/2020,2000,g  9.0,4.0
# From MPC 78590
P/2012 C3 (PANSTARRS),e,9.0920,135.3677,344.9542,9.748681,0.0323806,0.63011148,359.9758,10/06.0/2011,2000,g 13.0,4.0
# From MPC 84931
P/2012 F2 (PANSTARRS),e,14.7288,227.0655,33.2377,6.327777,0.0619195,0.54293353,164.7410,07/26.0/2020,2000,g 12.0,4.0
# From MPC 79344
P/2012 G1 (PANSTARRS),e,11.6925,282.5440,286.1149,4.172871,0.1156250,0.38072240,359.9500,06/01.0/2012,2000,g 15.0,4.0
# From MPC 80898
P/2012 K3 (Gibbs),e,13.1946,125.8086,172.1311,3.624327,0.1428443,0.42350098,49.0699,07/26.0/2020,2000,g 15.0,4.0
# From MPC112389
C/2012 LP26 (Palomar),h,08/18.8928/2015,25.3432,153.9264,145.3550,1.003630,6.545010,2000,6.5,4.0
# From MPC 88326
P/2012 NJ (La Sagra),e,84.6514,315.5521,338.3188,8.457804,0.0400698,0.84744414,118.8144,07/26.0/2020,2000,g 14.5,4.0
# From MPC 81470
P/2012 O1 (McNaught),e,7.4333,91.9846,238.2089,3.539794,0.1479916,0.59452330,75.7130,07/26.0/2020,2000,g 17.5,4.0
# From MPC 80899
P/2012 O2 (McNaught),e,24.4866,120.6783,183.3892,3.622437,0.1429561,0.53283380,63.8858,07/26.0/2020,2000,g 17.0,4.0
# From MPC 82720
P/2012 O3 (McNaught),e,16.6133,336.4077,344.6963,4.575612,0.1007002,0.64689256,292.2515,07/26.0/2020,2000,g 16.5,4.0
# From MPC 82720
P/2012 S2 (La Sagra),e,8.6874,51.1928,312.5076,4.410358,0.1064127,0.69113824,310.7493,07/26.0/2020,2000,g 17.0,4.0
# From MPEC 2020-N31
P/2012 SB6 (Lemmon),e,10.9287,8.2110,14.3910,3.825480,0.1317271,0.40481252,4.8402,07/26.0/2020,2000,g 14.0,4.0
# From MPEC 2020-N31
C/2014 B1 (Schwartz),e,28.4029,161.4089,345.8068,17508,0.0000004,0.99945424,0.0000,09/09.4905/2017,2000,g  4.0,4.0
# From MPEC 2020-N31
C/2014 Y1 (PANSTARRS),h,01/16.4380/2016,14.9125,19.5459,182.3382,1.001564,2.252633,2000,9.5,4.0
# From MPEC 2020-N31
C/2015 XY1 (Lemmon),h,04/28.1711/2018,148.8557,281.6254,196.2545,1.003406,7.924890,2000,5.5,4.0
# From MPEC 2020-N31
C/2016 N6 (PANSTARRS),e,105.8409,298.9907,162.7521,1660,0.0000146,0.99839307,0.0000,07/18.0853/2018,2000,g  7.0,4.0
# From MPEC 2020-N31
C/2016 Q2 (PANSTARRS),e,109.3889,322.2982,84.5047,27897,0.0000002,0.99974613,0.0000,05/11.5910/2021,2000,g  6.0,4.0
# From MPEC 2020-N31
C/2016 R2 (PANSTARRS),e,58.2264,80.5680,33.1771,545.2459,0.0000774,0.99522613,0.0000,05/09.2712/2018,2000,g  7.0,4.0
# From MPEC 2020-N31
C/2017 B3 (LINEAR),h,02/02.6359/2019,54.1731,2.1796,284.7845,1.001872,3.922229,2000,6.0,4.0
# From MPEC 2020-N31
C/2017 E3 (PANSTARRS),h,06/08.1123/2017,70.6310,220.7361,334.5210,1.006888,5.937870,2000,6.5,4.0
# From MPEC 2020-N31
C/2017 K2 (PANSTARRS),h,12/19.9254/2022,87.5439,88.2630,236.1669,1.000437,1.799072,2000,1.5,4.0
# From MPEC 2020-N31
C/2017 K4 (ATLAS),e,16.6807,298.8676,15.2167,28.47182,0.0064876,0.90692299,6.0308,07/26.0/2020,2000,g 10.0,4.0
# From MPEC 2020-N31
C/2017 M4 (ATLAS),h,01/17.8954/2019,105.6455,65.8677,167.5764,1.001181,3.252154,2000,6.0,4.0
# From MPEC 2020-N31
C/2017 T2 (PANSTARRS),e,57.2307,64.3775,92.9954,3655,0.0000045,0.99955806,0.0000,05/04.9538/2020,2000,g  5.0,4.0
# From MPEC 2020-N31
C/2017 U7 (PANSTARRS),h,09/13.8122/2019,142.6063,276.2433,326.2606,1.002476,6.420864,2000,8.3,2.0
# From MPEC 2020-N31
C/2017 Y2 (PANSTARRS),h,11/04.5320/2020,128.4242,65.9831,147.8533,1.000880,4.632131,2000,15.0,4.0
# From MPEC 2020-N31
C/2018 A6 (Gibbs),e,76.9606,340.3820,264.5528,15.34366,0.0163988,0.80328577,6.1934,07/26.0/2020,2000,g  9.0,4.0
# From MPEC 2020-N31
C/2018 C2 (Lemmon),h,06/01.9156/2018,34.4584,91.1396,134.1164,1.000946,1.957360,2000,13.0,4.0
# From MPEC 2020-N31
C/2018 F4 (PANSTARRS),h,12/04.1380/2019,78.0970,26.5105,263.2216,1.001528,3.440057,2000,11.9,2.0
# From MPEC 2020-N31
C/2018 KJ3 (Lemmon),e,136.7092,91.5952,217.6450,770.3039,0.0000461,0.99528885,0.0000,09/09.5970/2019,2000,g 12.2,2.0
# From MPEC 2020-N31
C/2018 N2 (ASASSN),h,11/10.9599/2019,77.5283,25.2531,24.3977,1.000095,3.124649,2000,6.0,4.0
# From MPEC 2020-N31
C/2018 U1 (Lemmon),h,11/02.7959/2021,108.3015,75.4769,180.4174,1.000702,4.994018,2000,5.0,4.0
# From MPEC 2020-N31
A/2018 V3,e,164.9779,308.6570,3.4992,120.6926,0.0007433,0.98890032,0.0000,09/08.6772/2019,2000,g 15.7,2.0
# From MPEC 2020-N31
C/2018 W2 (Africano),h,09/05.7066/2019,116.6169,181.8537,157.9750,1.000567,1.454758,2000,9.5,4.0
# From MPEC 2020-N31
C/2019 A5 (PANSTARRS),e,67.5541,146.6235,356.0062,21.61045,0.0098109,0.70737846,4.0516,07/26.0/2020,2000,g  9.5,4.0
# From MPEC 2020-N31
C/2019 A9 (PANSTARRS),e,84.3007,278.3776,237.9231,39.87534,0.0039142,0.96416427,1.4300,07/26.0/2020,2000,g 15.0,4.0
# From MPEC 2020-N31
C/2019 B3 (PANSTARRS),h,01/19.8425/2021,66.5347,358.4217,263.9008,1.002824,6.822997,2000,5.5,4.0
# From MPEC 2020-N31
C/2019 C1 (ATLAS),e,36.0193,212.3935,319.1896,795.0535,0.0000440,0.99172215,0.0000,05/05.6833/2020,2000,g 10.0,4.0
# From MPEC 2020-N31
C/2019 F1 (ATLAS-Africano),h,06/22.7730/2021,54.1753,38.7261,251.1089,1.003466,3.596054,2000,5.5,4.0
# From MPEC 2020-N31
C/2019 K6 (PANSTARRS),e,132.3742,42.9404,187.6202,1549,0.0000162,0.99746347,0.0000,05/20.1984/2020,2000,g 11.5,4.0
# From MPEC 2020-N31
C/2019 K7 (Smith),h,06/16.9303/2020,103.5389,307.9265,27.2970,1.000935,4.475027,2000,6.0,4.0
# From MPC 82320
P/2012 T2 (PANSTARRS),e,12.5553,73.7329,310.4319,5.738548,0.0716970,0.16056401,190.3578,07/26.0/2020,2000,g 10.0,4.0
# From MPC 80900
P/2012 T3 (PANSTARRS),e,9.5689,114.4084,195.4332,6.152687,0.0645813,0.61717448,194.2772,07/26.0/2020,2000,g 15.0,4.0
# From MPC 87914
P/2012 TK8 (Tenagra),e,6.3405,288.9703,127.8467,4.130237,0.1174199,0.27434805,306.4128,07/26.0/2020,2000,g 13.0,4.0
# From MPC 82720
P/2012 U2 (PANSTARRS),e,10.7477,185.2684,228.3384,7.143799,0.0516191,0.49761826,145.4289,07/26.0/2020,2000,g 12.5,4.0
# From MPC 84024
P/2012 US27 (Siding Spring),e,39.3262,49.1695,0.8251,5.166213,0.0839355,0.64732340,229.9192,07/26.0/2020,2000,g 13.5,4.0
# From MPC 82721
